STARLINK-31057          
1 58545C 23192Q   25280.79354167 -.00013176  00000+0 -44419-3 0  2800
2 58545  53.1587  53.1364 0001146  86.7486 261.6943 15.30197473    13
STARLINK-31050          
1 58546C 23192R   25280.79493056 -.00022457  00000+0 -75681-3 0  2809
2 58546  53.1587  53.1641 0001163  92.9070 245.7128 15.30216947    15
STARLINK-31063          
1 58547C 23192S   25280.79562500 -.00110500  00000+0 -37241-2 0  2807
2 58547  53.1606  42.5799 0001174  90.2362 200.0416 15.30303689    15
STARLINK-31016          
1 58548C 23192T   25280.79701389 -.00013654  00000+0 -46031-3 0  2808
2 58548  53.1604  52.6546 0001241  90.5495 132.2858 15.30195842    17
STARLINK-31053          
1 58549C 23192U   25280.79562500 -.00015429  00000+0 -51971-3 0  2800
2 58549  53.1583  53.1949 0001201  81.5712 243.3602 15.30224983    15
STARLINK-31056          
1 58550C 23192V   25280.79701389 -.00011098  00000+0 -37413-3 0  2805
2 58550  53.1607  52.7353 0001252  84.3949 120.9420 15.30195610    19
STARLINK-30999          
1 58551C 23192W   25280.79423611  .00001467  00000+0  49492-4 0  2803
2 58551  53.1596  42.9624 0001253  99.6203 310.5014 15.30162587    15
STARLINK-31046          
1 58552C 23192X   25280.79215278  .00009217  00000+0  31103-3 0  2802
2 58552  53.1587  53.2909 0001102  82.0835 183.1055 15.30142289    13
STARLINK-31044          
1 58589C 23200A   25280.79562500 -.00002327  00000+0 -17175-3 0  2805
2 58589  43.0029 280.6624 0001345 266.9083 295.3202 15.02533331    10
STARLINK-31062          
1 58590C 23200B   25280.79493056 -.00000323  00000+0 -23837-4 0  2803
2 58590  43.0023 282.6262 0001372 263.2063 197.1389 15.02534054    12
STARLINK-31096          
1 58592C 23200D   25280.79562500 -.00016857  00000+0 -12437-2 0  2807
2 58592  43.0025 282.1249 0001304 267.7271  46.7284 15.02554906    12
STARLINK-31094          
1 58593C 23200E   25280.79631944 -.00014154  00000+0 -10444-2 0  2801
2 58593  43.0027 281.4080 0001228 267.9593 351.4654 15.02551136    13
STARLINK-31075          
1 58594C 23200F   25280.79493056  .00005389  00000+0  39779-3 0  2803
2 58594  43.0031 281.2356 0001067 279.4250  44.6076 15.02512971    15
STARLINK-30857          
1 58595C 23200G   25280.79284722  .00000173  00000+0  12789-4 0  2801
2 58595  43.0029 281.2973 0001328 263.8187  30.9040 15.02533179    16
STARLINK-31059          
1 58596C 23200H   25280.79145833 -.00033863  00000+0 -12265-2 0  2802
2 58596  43.0028 155.6148 0001493 268.9200 221.4170 15.27612205    15
STARLINK-31087          
1 58597C 23200J   25280.79979167  .00006804  00000+0  50228-3 0  2803
2 58597  43.0029 281.1722 0001274 278.8609  89.5093 15.02508455    11
STARLINK-31079          
1 58598C 23200K   25280.80673611  .00061677  00000+0  36083-2 0  2802
2 58598  43.0001 277.5713 0007788  79.8106  43.1192 15.11002946    18
STARLINK-31052          
1 58600C 23200M   25280.79493056 -.00000530  00000+0 -39121-4 0  2808
2 58600  43.0025 281.1125 0001387 262.9039 115.2309 15.02531696    15
STARLINK-31074          
1 58601C 23200N   25280.79145833  .00002935  00000+0  21656-3 0  2808
2 58601  43.0025 281.0882 0001274 269.8508 107.4643 15.02530092    10
STARLINK-31071          
1 58602C 23200P   25280.79423611 -.00047521  00000+0 -17214-2 0  2808
2 58602  43.0021 152.1526 0001818 276.3439 205.4385 15.27621223    16
STARLINK-31080          
1 58603C 23200Q   25280.81090278  .00006251  00000+0  45853-3 0  2805
2 58603  43.0025 280.9301 0001209 271.9687 232.3763 15.02748540    16
STARLINK-31088          
1 58604C 23200R   25280.79215278 -.00009853  00000+0 -72699-3 0  2803
2 58604  43.0025 280.9831 0001271 267.6387 149.5540 15.02547355    16
STARLINK-31038          
1 58605C 23200S   25280.79215278  .00000485  00000+0  35767-4 0  2800
2 58605  43.0025 280.9109 0001305 269.3780 183.8774 15.02534042    18
STARLINK-31082          
1 58606C 23200T   25280.79006944 -.00001137  00000+0 -83925-4 0  2805
2 58606  43.0024 280.9657 0001379 263.7480 160.1926 15.02530727    15
STARLINK-31069          
1 58607C 23200U   25280.79770833 -.00008010  00000+0 -59103-3 0  2808
2 58607  43.0028 280.8361 0001249 273.3922 227.9664 15.02544923    19
STARLINK-31067          
1 58608C 23200V   25280.79562500 -.00012661  00000+0 -93409-3 0  2803
2 58608  43.0029 280.8040 0001366 270.6019 237.4985 15.02553618    15
STARLINK-31085          
1 58609C 23200W   25280.79631944 -.00001048  00000+0 -77340-4 0  2807
2 58609  43.0022 280.7585 0001105 262.1385 267.7771 15.02530339    19
STARLINK-31089          
1 58610C 23200X   25280.79145833 -.00000743  00000+0 -54819-4 0  2803
2 58610  43.0024 281.4573 0001333 264.1997 292.8994 15.02529474    16
STARLINK-31061          
1 58611C 23200Y   25280.79562500  .00004643  00000+0  34269-3 0  2805
2 58611  43.0027 280.7176 0001319 268.8240 275.3922 15.02520027    19
