OBJECT_NAME,OBJECT_ID,EPOCH,MEAN_MOTION,ECCENTRICITY,INCLINATION,RA_OF_ASC_NODE,ARG_OF_PERICENTER,MEAN_ANOMALY,EPHEMERIS_TYPE,CLASSIFICATION_TYPE,NORAD_CAT_ID,ELEMENT_SET_NO,REV_AT_EPOCH,BSTAR,MEAN_MOTION_DOT,MEAN_MOTION_DDOT,RMS,DATA_SOURCE
STARLINK-31057,2023-192Q,2025-10-07T19:02:42.000029,15.30197473,0.0001146,53.1587,53.1364,86.7486,261.6943,0,C,58545,280,1,-0.00044419,-0.00013176,0,0.371,SpaceX-E
STARLINK-31050,2023-192R,2025-10-07T19:04:42.000038,15.30216947,0.0001163,53.1587,53.1641,92.907,245.7128,0,C,58546,280,1,-0.00075681,-0.00022457,0,0.488,SpaceX-E
STARLINK-31063,2023-192S,2025-10-07T19:05:42.000000,15.30303689,0.0001174,53.1606,42.5799,90.2362,200.0416,0,C,58547,280,1,-0.0037241,-0.001105,0,0.811,SpaceX-E
STARLINK-31016,2023-192T,2025-10-07T19:07:42.000010,15.30195842,0.0001241,53.1604,52.6546,90.5495,132.2858,0,C,58548,280,1,-0.00046031,-0.00013654,0,0.306,SpaceX-E
STARLINK-31053,2023-192U,2025-10-07T19:05:42.000000,15.30224983,0.0001201,53.1583,53.1949,81.5712,243.3602,0,C,58549,280,1,-0.00051971,-0.00015429,0,0.441,SpaceX-E
STARLINK-31056,2023-192V,2025-10-07T19:07:42.000010,15.3019561,0.0001252,53.1607,52.7353,84.3949,120.942,0,C,58550,280,1,-0.00037413,-0.00011098,0,0.303,SpaceX-E
STARLINK-30999,2023-192W,2025-10-07T19:03:41.999990,15.30162587,0.0001253,53.1596,42.9624,99.6203,310.5014,0,C,58551,280,1,4.9492e-05,1.4672e-05,0,0.333,SpaceX-E
STARLINK-31046,2023-192X,2025-10-07T19:00:42.000019,15.30142289,0.0001102,53.1587,53.2909,82.0835,183.1055,0,C,58552,280,1,0.00031103,9.2168e-05,0,0.634,SpaceX-E
STARLINK-31044,2023-200A,2025-10-07T19:05:42.000000,15.02533331,0.0001345,43.0029,280.6624,266.9083,295.3202,0,C,58589,280,1,-0.00017175,-2.3274e-05,0,0.278,SpaceX-E
STARLINK-31062,2023-200B,2025-10-07T19:04:42.000038,15.02534054,0.0001372,43.0023,282.6262,263.2063,197.1389,0,C,58590,280,1,-2.3837e-05,-3.2304e-06,0,0.277,SpaceX-E
STARLINK-31096,2023-200D,2025-10-07T19:05:42.000000,15.02554906,0.0001304,43.0025,282.1249,267.7271,46.7284,0,C,58592,280,1,-0.0012437,-0.00016857,0,0.371,SpaceX-E
STARLINK-31094,2023-200E,2025-10-07T19:06:41.999962,15.02551136,0.0001228,43.0027,281.408,267.9593,351.4654,0,C,58593,280,1,-0.0010444,-0.00014154,0,0.336,SpaceX-E
STARLINK-31075,2023-200F,2025-10-07T19:04:42.000038,15.02512971,0.0001067,43.0031,281.2356,279.425,44.6076,0,C,58594,280,1,0.00039779,5.3885e-05,0,0.223,SpaceX-E
STARLINK-30857,2023-200G,2025-10-07T19:01:41.999981,15.02533179,0.0001328,43.0029,281.2973,263.8187,30.904,0,C,58595,280,1,1.2789e-05,1.7332e-06,0,0.257,SpaceX-E
STARLINK-31059,2023-200H,2025-10-07T18:59:41.999971,15.27612205,0.0001493,43.0028,155.6148,268.92,221.417,0,C,58596,280,1,-0.0012265,-0.00033863,0,0.517,SpaceX-E
STARLINK-31087,2023-200J,2025-10-07T19:11:42.000029,15.02508455,0.0001274,43.0029,281.1722,278.8609,89.5093,0,C,58597,280,1,0.00050228,6.8035e-05,0,0.223,SpaceX-E
STARLINK-31079,2023-200K,2025-10-07T19:21:41.999990,15.11002946,0.0007788,43.0001,277.5713,79.8106,43.1192,0,C,58598,280,1,0.0036083,0.00061677,0,0.234,SpaceX-E
STARLINK-31052,2023-200M,2025-10-07T19:04:42.000038,15.02531696,0.0001387,43.0025,281.1125,262.9039,115.2309,0,C,58600,280,1,-3.9121e-05,-5.3013e-06,0,0.276,SpaceX-E
STARLINK-31074,2023-200N,2025-10-07T18:59:41.999971,15.02530092,0.0001274,43.0025,281.0882,269.8508,107.4643,0,C,58601,280,1,0.00021656,2.9348e-05,0,0.239,SpaceX-E
STARLINK-31071,2023-200P,2025-10-07T19:03:41.999990,15.27621223,0.0001818,43.0021,152.1526,276.3439,205.4385,0,C,58602,280,1,-0.0017214,-0.00047521,0,0.693,SpaceX-E
STARLINK-31080,2023-200Q,2025-10-07T19:27:42.000019,15.0274854,0.0001209,43.0025,280.9301,271.9687,232.3763,0,C,58603,280,1,0.00045853,6.2505e-05,0,0.228,SpaceX-E
STARLINK-31088,2023-200R,2025-10-07T19:00:42.000019,15.02547355,0.0001271,43.0025,280.9831,267.6387,149.554,0,C,58604,280,1,-0.00072699,-9.8532e-05,0,0.311,SpaceX-E
STARLINK-31038,2023-200S,2025-10-07T19:00:42.000019,15.02534042,0.0001305,43.0025,280.9109,269.378,183.8774,0,C,58605,280,1,3.5767e-05,4.8472e-06,0,0.265,SpaceX-E
STARLINK-31082,2023-200T,2025-10-07T18:57:41.999962,15.02530727,0.0001379,43.0024,280.9657,263.748,160.1926,0,C,58606,280,1,-8.3925e-05,-1.1372e-05,0,0.284,SpaceX-E
STARLINK-31069,2023-200U,2025-10-07T19:08:41.999971,15.02544923,0.0001249,43.0028,280.8361,273.3922,227.9664,0,C,58607,280,1,-0.00059103,-8.0102e-05,0,0.3,SpaceX-E
STARLINK-31067,2023-200V,2025-10-07T19:05:42.000000,15.02553618,0.0001366,43.0029,280.804,270.6019,237.4985,0,C,58608,280,1,-0.00093409,-0.00012661,0,0.321,SpaceX-E
STARLINK-31085,2023-200W,2025-10-07T19:06:41.999962,15.02530339,0.0001105,43.0022,280.7585,262.1385,267.7771,0,C,58609,280,1,-7.734e-05,-1.048e-05,0,0.274,SpaceX-E
STARLINK-31089,2023-200X,2025-10-07T18:59:41.999971,15.02529474,0.0001333,43.0024,281.4573,264.1997,292.8994,0,C,58610,280,1,-5.4819e-05,-7.428e-06,0,0.291,SpaceX-E
STARLINK-31061,2023-200Y,2025-10-07T19:05:42.000000,15.02520027,0.0001319,43.0027,280.7176,268.824,275.3922,0,C,58611,280,1,0.00034269,4.643e-05,0,0.228,SpaceX-E
